{
    "links": {
        "self": "http://www.neowsapp.com/rest/v1/neo/3989090?api_key=iIulBulltgU6a56xZRHN4H3l9WmuAYTsLGpBGhQ2"
    },
    "id": "3989090",
    "neo_reference_id": "3989090",
    "name": "(2020 BH5)",
    "designation": "2020 BH5",
    "nasa_jpl_url": "http://ssd.jpl.nasa.gov/sbdb.cgi?sstr=3989090",
    "absolute_magnitude_h": 23.517,
    "estimated_diameter": {
        "kilometers": {
            "estimated_diameter_min": 0.0526205007,
            "estimated_diameter_max": 0.1176630167
        },
        "meters": {
            "estimated_diameter_min": 52.6205007477,
            "estimated_diameter_max": 117.663016682
        },
        "miles": {
            "estimated_diameter_min": 0.0326968532,
            "estimated_diameter_max": 0.0731123863
        },
        "feet": {
            "estimated_diameter_min": 172.6394436731,
            "estimated_diameter_max": 386.0335316509
        }
    },
    "is_potentially_hazardous_asteroid": false,
    "close_approach_data": [
        {
            "close_approach_date": "2013-02-16",
            "close_approach_date_full": "2013-Feb-16 20:50",
            "epoch_date_close_approach": 1361047800000,
            "relative_velocity": {
                "kilometers_per_second": "20.0383406724",
                "kilometers_per_hour": "72138.026420483",
                "miles_per_hour": "44823.764249994"
            },
            "miss_distance": {
                "astronomical": "0.4587622527",
                "lunar": "178.4585163003",
                "kilometers": "68629855.840321749",
                "miles": "42644614.9621041762"
            },
            "orbiting_body": "Earth"
        },
        {
            "close_approach_date": "2020-01-25",
            "close_approach_date_full": "2020-Jan-25 04:05",
            "epoch_date_close_approach": 1579925100000,
            "relative_velocity": {
                "kilometers_per_second": "11.4107497049",
                "kilometers_per_hour": "41078.6989374676",
                "miles_per_hour": "25524.7060147837"
            },
            "miss_distance": {
                "astronomical": "0.1176969771",
                "lunar": "45.7841240919",
                "kilometers": "17607217.079598777",
                "miles": "10940617.3700940426"
            },
            "orbiting_body": "Earth"
        }
    ],
    "orbital_data": {
        "orbit_id": "8",
        "orbit_determination_date": "2020-02-25 11:52:14",
        "first_observation_date": "2020-01-22",
        "last_observation_date": "2020-02-23",
        "data_arc_in_days": 32,
        "observations_used": 54,
        "orbit_uncertainty": "7",
        "minimum_orbit_intersection": ".114259",
        "jupiter_tisserand_invariant": "3.343",
        "epoch_osculation": "2459000.5",
        "eccentricity": ".5302642857624886",
        "semi_major_axis": "2.289053146803651",
        "inclination": "17.92848860438881",
        "ascending_node_longitude": "132.2430587967947",
        "orbital_period": "1264.975869666569",
        "perihelion_distance": "1.075250014841436",
        "perihelion_argument": "335.8938672804716",
        "aphelion_distance": "3.502856278765867",
        "perihelion_time": "2458857.552322471013",
        "mean_anomaly": "40.68153799961392",
        "mean_motion": ".2845904089023384",
        "equinox": "J2000",
        "orbit_class": {
            "orbit_class_type": "AMO",
            "orbit_class_description": "Near-Earth asteroid orbits similar to that of 1221 Amor",
            "orbit_class_range": "1.017 AU < q (perihelion) < 1.3 AU"
        }
    },
    "is_sentry_object": false
}